[{"OBJECT_NAME":"STARLINK-11647 [DTC]","OBJECT_ID":"2025-048J","EPOCH":"2026-03-09T02:57:55.795680","MEAN_MOTION":15.70867594,"ECCENTRICITY":0.00023772,"INCLINATION":42.9988,"RA_OF_ASC_NODE":323.1698,"ARG_OF_PERICENTER":241.5723,"MEAN_ANOMALY":118.4905,"EPHEMERIS_TYPE":0,"CLASSIFICATION_TYPE":"U","NORAD_CAT_ID":63191,"ELEMENT_SET_NO":999,"REV_AT_EPOCH":5843,"BSTAR":0.00094661194,"MEAN_MOTION_DOT":0.00122977,"MEAN_MOTION_DDOT":0},{"OBJECT_NAME":"THORAD AGENA D DEB","OBJECT_ID":"1970-025PF","EPOCH":"2026-03-08T02:58:32.488032","MEAN_MOTION":15.64290563,"ECCENTRICITY":0.00166136,"INCLINATION":99.9335,"RA_OF_ASC_NODE":127.481,"ARG_OF_PERICENTER":247.6747,"MEAN_ANOMALY":112.2743,"EPHEMERIS_TYPE":0,"CLASSIFICATION_TYPE":"U","NORAD_CAT_ID":17717,"ELEMENT_SET_NO":999,"REV_AT_EPOCH":15016,"BSTAR":0.0052904272,"MEAN_MOTION_DOT":0.00540965,"MEAN_MOTION_DDOT":0}]
